[
    {
        "CCSDS_OMM_VERS": "3.0",
        "COMMENT": "GENERATED VIA SPACE-TRACK.ORG API",
        "CREATION_DATE": "2025-03-02T18:08:23",
        "ORIGINATOR": "18 SPCS",
        "OBJECT_NAME": "BEIDOU 3M15",
        "OBJECT_ID": "2018-078A",
        "CENTER_NAME": "EARTH",
        "REF_FRAME": "TEME",
        "TIME_SYSTEM": "UTC",
        "MEAN_ELEMENT_THEORY": "SGP4",
        "EPOCH": "2025-03-02T01:00:44.198208",
        "MEAN_MOTION": "1.86232158",
        "ECCENTRICITY": "0.00082150",
        "INCLINATION": "54.5083",
        "RA_OF_ASC_NODE": "316.4857",
        "ARG_OF_PERICENTER": "20.5998",
        "MEAN_ANOMALY": "339.4909",
        "EPHEMERIS_TYPE": "0",
        "CLASSIFICATION_TYPE": "U",
        "NORAD_CAT_ID": "43647",
        "ELEMENT_SET_NO": "999",
        "REV_AT_EPOCH": "4336",
        "BSTAR": "0.00000000000000",
        "MEAN_MOTION_DOT": "-0.00000053",
        "MEAN_MOTION_DDOT": "0.0000000000000",
        "SEMIMAJOR_AXIS": "27906.073",
        "PERIOD": "773.228",
        "APOAPSIS": "21550.863",
        "PERIAPSIS": "21505.013",
        "OBJECT_TYPE": "PAYLOAD",
        "RCS_SIZE": "LARGE",
        "COUNTRY_CODE": "PRC",
        "LAUNCH_DATE": "2018-10-15",
        "SITE": "XSC",
        "DECAY_DATE": null,
        "FILE": "4657142",
        "GP_ID": "282087690",
        "TLE_LINE0": "0 BEIDOU 3M15",
        "TLE_LINE1": "1 43647U 18078A   25061.04217822 -.00000053  00000-0  00000-0 0  9997",
        "TLE_LINE2": "2 43647  54.5083 316.4857 0008215  20.5998 339.4909  1.86232158 43363"
    }
]